{"type": "FeatureCollection", "features": [ {"type": "Feature", "properties": {"norad_id": 33917, "name": "COSMOS 2251 DEB", "group": "cosmos-2251-debris", "lat": 67.50793977399971, "lon": 156.29934894163753, "alt_km": 1174.6725286085184, "timestamp": "2025-12-18T13:51:50.078966+00:00", "meta": {"OBJECT_NAME": "COSMOS 2251 DEB", "OBJECT_ID": "1993-036DW", "EPOCH": "2025-12-17T18:11:42.770688", "MEAN_MOTION": 13.6936934, "ECCENTRICITY": 0.03313106, "INCLINATION": 74.1071, "RA_OF_ASC_NODE": 114.165, "ARG_OF_PERICENTER": 214.0345, "MEAN_ANOMALY": 143.913, "EPHEMERIS_TYPE": 0, "CLASSIFICATION_TYPE": "U", "NORAD_CAT_ID": 33917, "ELEMENT_SET_NO": 999, "REV_AT_EPOCH": 83802, "BSTAR": 0.00064788495, "MEAN_MOTION_DOT": 8.05e-06, "MEAN_MOTION_DDOT": 0}, "tle": {"line1": "1 33917U 93036DW  25351.75813392  .00000805  00000+0  64788-3 0  9996", "line2": "2 33917  74.1071 114.1650 0331310 214.0345 143.9130 13.69369340838029"}}, "geometry": {"type": "Point", "coordinates": [156.29934894163753, 67.50793977399971]}}, {"type": "Feature", "properties": {"norad_id": 33920, "name": "COSMOS 2251 DEB", "group": "cosmos-2251-debris", "lat": -43.85494094543784, "lon": 123.26886759457659, "alt_km": 694.2492014060463, "timestamp": "2025-12-18T13:51:50.078976+00:00", "meta": {"OBJECT_NAME": "COSMOS 2251 DEB", "OBJECT_ID": "1993-036DZ", "EPOCH": "2025-12-18T06:14:30.309792", "MEAN_MOTION": 14.58362222, "ECCENTRICITY": 0.00379776, "INCLINATION": 74.0621, "RA_OF_ASC_NODE": 287.9362, "ARG_OF_PERICENTER": 293.8199, "MEAN_ANOMALY": 65.8986, "EPHEMERIS_TYPE": 0, "CLASSIFICATION_TYPE": "U", "NORAD_CAT_ID": 33920, "ELEMENT_SET_NO": 999, "REV_AT_EPOCH": 88195, "BSTAR": 0.0014243799, "MEAN_MOTION_DOT": 6.638e-05, "MEAN_MOTION_DDOT": 0}, "tle": {"line1": "1 33920U 93036DZ  25352.26007303  .00006638  00000+0  14244-2 0  9995", "line2": "2 33920  74.0621 287.9362 0037977 293.8199  65.8986 14.58362222881958"}}, "geometry": {"type": "Point", "coordinates": [123.26886759457659, -43.85494094543784]}}, {"type": "Feature", "properties": {"norad_id": 33922, "name": "COSMOS 2251 DEB", "group": "cosmos-2251-debris", "lat": -3.1500100694125086, "lon": -42.28087227088391, "alt_km": 722.8385827399497, "timestamp": "2025-12-18T13:51:50.078986+00:00", "meta": {"OBJECT_NAME": "COSMOS 2251 DEB", "OBJECT_ID": "1993-036EB", "EPOCH": "2025-12-18T03:54:04.377888", "MEAN_MOTION": 14.49526411, "ECCENTRICITY": 0.00231907, "INCLINATION": 74.0465, "RA_OF_ASC_NODE": 137.5952, "ARG_OF_PERICENTER": 247.5458, "MEAN_ANOMALY": 290.5553, "EPHEMERIS_TYPE": 0, "CLASSIFICATION_TYPE": "U", "NORAD_CAT_ID": 33922, "ELEMENT_SET_NO": 999, "REV_AT_EPOCH": 88656, "BSTAR": 0.0003871962, "MEAN_MOTION_DOT": 1.462e-05, "MEAN_MOTION_DDOT": 0}, "tle": {"line1": "1 33922U 93036EB  25352.16255067  .00001462  00000+0  38720-3 0  9994", "line2": "2 33922  74.0465 137.5952 0023190 247.5458 290.5553 14.49526411886568"}}, "geometry": {"type": "Point", "coordinates": [-42.28087227088391, -3.1500100694125086]}}, {"type": "Feature", "properties": {"norad_id": 33924, "name": "COSMOS 2251 DEB", "group": "cosmos-2251-debris", "lat": -4.455325672075998, "lon": 82.10602608486143, "alt_km": 1170.1178117367635, "timestamp": "2025-12-18T13:51:50.078998+00:00", "meta": {"OBJECT_NAME": "COSMOS 2251 DEB", "OBJECT_ID": "1993-036ED", "EPOCH": "2025-12-18T04:01:13.804032", "MEAN_MOTION": 13.50232743, "ECCENTRICITY": 0.04039375, "INCLINATION": 73.9135, "RA_OF_ASC_NODE": 261.4767, "ARG_OF_PERICENTER": 295.9733, "MEAN_ANOMALY": 60.0285, "EPHEMERIS_TYPE": 0, "CLASSIFICATION_TYPE": "U", "NORAD_CAT_ID": 33924, "ELEMENT_SET_NO": 999, "REV_AT_EPOCH": 82812, "BSTAR": 0.0004843714, "MEAN_MOTION_DOT": 4.89e-06, "MEAN_MOTION_DDOT": 0}, "tle": {"line1": "1 33924U 93036ED  25352.16752088  .00000489  00000+0  48437-3 0  9995", "line2": "2 33924  73.9135 261.4767 0403937 295.9733  60.0285 13.50232743828120"}}, "geometry": {"type": "Point", "coordinates": [82.10602608486143, -4.455325672075998]}}, {"type": "Feature", "properties": {"norad_id": 33928, "name": "COSMOS 2251 DEB", "group": "cosmos-2251-debris", "lat": -16.45537237482177, "lon": 36.688652484922244, "alt_km": 695.1618550488165, "timestamp": "2025-12-18T13:51:50.079009+00:00", "meta": {"OBJECT_NAME": "COSMOS 2251 DEB", "OBJECT_ID": "1993-036EH", "EPOCH": "2025-12-18T03:59:21.328512", "MEAN_MOTION": 14.47414285, "ECCENTRICITY": 0.00617283, "INCLINATION": 73.9257, "RA_OF_ASC_NODE": 42.3485, "ARG_OF_PERICENTER": 335.3271, "MEAN_ANOMALY": 24.4937, "EPHEMERIS_TYPE": 0, "CLASSIFICATION_TYPE": "U", "NORAD_CAT_ID": 33928, "ELEMENT_SET_NO": 999, "REV_AT_EPOCH": 88723, "BSTAR": 0.00019337118, "MEAN_MOTION_DOT": 6.97e-06, "MEAN_MOTION_DDOT": 0}, "tle": {"line1": "1 33928U 93036EH  25352.16621908  .00000697  00000+0  19337-3 0  9993", "line2": "2 33928  73.9257  42.3485 0061728 335.3271  24.4937 14.47414285887231"}}, "geometry": {"type": "Point", "coordinates": [36.688652484922244, -16.45537237482177]}}, {"type": "Feature", "properties": {"norad_id": 33932, "name": "COSMOS 2251 DEB", "group": "cosmos-2251-debris", "lat": -57.86710752407604, "lon": -81.96626729632105, "alt_km": 765.4856710620052, "timestamp": "2025-12-18T13:51:50.079019+00:00", "meta": {"OBJECT_NAME": "COSMOS 2251 DEB", "OBJECT_ID": "1993-036EM", "EPOCH": "2025-12-18T05:48:19.346976", "MEAN_MOTION": 14.38774001, "ECCENTRICITY": 0.00356013, "INCLINATION": 74.034, "RA_OF_ASC_NODE": 305.7693, "ARG_OF_PERICENTER": 20.6059, "MEAN_ANOMALY": 339.6522, "EPHEMERIS_TYPE": 0, "CLASSIFICATION_TYPE": "U", "NORAD_CAT_ID": 33932, "ELEMENT_SET_NO": 999, "REV_AT_EPOCH": 88077, "BSTAR": 0.00038736144, "MEAN_MOTION_DOT": 1.173e-05, "MEAN_MOTION_DDOT": 0}, "tle": {"line1": "1 33932U 93036EM  25352.24189059  .00001173  00000+0  38736-3 0  9997", "line2": "2 33932  74.0340 305.7693 0035601  20.6059 339.6522 14.38774001880775"}}, "geometry": {"type": "Point", "coordinates": [-81.96626729632105, -57.86710752407604]}}, {"type": "Feature", "properties": {"norad_id": 33933, "name": "COSMOS 2251 DEB", "group": "cosmos-2251-debris", "lat": 34.41005618059547, "lon": 60.76424637535094, "alt_km": 729.785448156852, "timestamp": "2025-12-18T13:51:50.079030+00:00", "meta": {"OBJECT_NAME": "COSMOS 2251 DEB", "OBJECT_ID": "1993-036EN", "EPOCH": "2025-12-18T05:19:26.199264", "MEAN_MOTION": 14.33497311, "ECCENTRICITY": 0.00708553, "INCLINATION": 74.0892, "RA_OF_ASC_NODE": 50.1453, "ARG_OF_PERICENTER": 56.9172, "MEAN_ANOMALY": 303.8756, "EPHEMERIS_TYPE": 0, "CLASSIFICATION_TYPE": "U", "NORAD_CAT_ID": 33933, "ELEMENT_SET_NO": 999, "REV_AT_EPOCH": 87863, "BSTAR": 0.00021490861, "MEAN_MOTION_DOT": 5.86e-06, "MEAN_MOTION_DDOT": 0}, "tle": {"line1": "1 33933U 93036EN  25352.22183101  .00000586  00000+0  21491-3 0  9995", "line2": "2 33933  74.0892  50.1453 0070855  56.9172 303.8756 14.33497311878636"}}, "geometry": {"type": "Point", "coordinates": [60.76424637535094, 34.41005618059547]}}, {"type": "Feature", "properties": {"norad_id": 33934, "name": "COSMOS 2251 DEB", "group": "cosmos-2251-debris", "lat": -27.401081947745883, "lon": 80.91712436441223, "alt_km": 706.5218886704997, "timestamp": "2025-12-18T13:51:50.079040+00:00", "meta": {"OBJECT_NAME": "COSMOS 2251 DEB", "OBJECT_ID": "1993-036EP", "EPOCH": "2025-12-17T16:36:13.965120", "MEAN_MOTION": 14.59150764, "ECCENTRICITY": 0.00154944, "INCLINATION": 74.0384, "RA_OF_ASC_NODE": 91.1363, "ARG_OF_PERICENTER": 215.0285, "MEAN_ANOMALY": 144.9863, "EPHEMERIS_TYPE": 0, "CLASSIFICATION_TYPE": "U", "NORAD_CAT_ID": 33934, "ELEMENT_SET_NO": 999, "REV_AT_EPOCH": 88811, "BSTAR": 0.0006938547, "MEAN_MOTION_DOT": 3.246e-05, "MEAN_MOTION_DDOT": 0}, "tle": {"line1": "1 33934U 93036EP  25351.69182830  .00003246  00000+0  69385-3 0  9994", "line2": "2 33934  74.0384  91.1363 0015494 215.0285 144.9863 14.59150764888112"}}, "geometry": {"type": "Point", "coordinates": [80.91712436441223, -27.401081947745883]}}, {"type": "Feature", "properties": {"norad_id": 33936, "name": "COSMOS 2251 DEB", "group": "cosmos-2251-debris", "lat": -68.93231373389365, "lon": -21.743265773478907, "alt_km": 703.5323347590211, "timestamp": "2025-12-18T13:51:50.079050+00:00", "meta": {"OBJECT_NAME": "COSMOS 2251 DEB", "OBJECT_ID": "1993-036ER", "EPOCH": "2025-12-18T04:20:53.591712", "MEAN_MOTION": 14.60304667, "ECCENTRICITY": 0.00271857, "INCLINATION": 74.0183, "RA_OF_ASC_NODE": 27.0842, "ARG_OF_PERICENTER": 181.3024, "MEAN_ANOMALY": 178.8076, "EPHEMERIS_TYPE": 0, "CLASSIFICATION_TYPE": "U", "NORAD_CAT_ID": 33936, "ELEMENT_SET_NO": 999, "REV_AT_EPOCH": 88969, "BSTAR": 0.00048829389, "MEAN_MOTION_DOT": 2.341e-05, "MEAN_MOTION_DDOT": 0}, "tle": {"line1": "1 33936U 93036ER  25352.18117583  .00002341  00000+0  48829-3 0  9999", "line2": "2 33936  74.0183  27.0842 0027185 181.3024 178.8076 14.60304667889698"}}, "geometry": {"type": "Point", "coordinates": [-21.743265773478907, -68.93231373389365]}}, {"type": "Feature", "properties": {"norad_id": 33938, "name": "COSMOS 2251 DEB", "group": "cosmos-2251-debris", "lat": -32.47566235610639, "lon": 26.76871632688347, "alt_km": 736.5702854339088, "timestamp": "2025-12-18T13:51:50.079060+00:00", "meta": {"OBJECT_NAME": "COSMOS 2251 DEB", "OBJECT_ID": "1993-036ET", "EPOCH": "2025-12-18T06:46:41.179584", "MEAN_MOTION": 14.46809848, "ECCENTRICITY": 0.00168331, "INCLINATION": 74.0438, "RA_OF_ASC_NODE": 196.8278, "ARG_OF_PERICENTER": 278.4785, "MEAN_ANOMALY": 198.397, "EPHEMERIS_TYPE": 0, "CLASSIFICATION_TYPE": "U", "NORAD_CAT_ID": 33938, "ELEMENT_SET_NO": 999, "REV_AT_EPOCH": 88480, "BSTAR": 0.00034249899, "MEAN_MOTION_DOT": 1.216e-05, "MEAN_MOTION_DDOT": 0}, "tle": {"line1": "1 33938U 93036ET  25352.28242106  .00001216  00000+0  34250-3 0  9995", "line2": "2 33938  74.0438 196.8278 0016833 278.4785 198.3970 14.46809848884804"}}, "geometry": {"type": "Point", "coordinates": [26.76871632688347, -32.47566235610639]}}]}